COMMENT,ORIGINATOR,NORAD_CAT_ID,OBJECT_NAME,OBJECT_TYPE,CLASSIFICATION_TYPE,INTLDES,EPOCH,EPOCH_MICROSECONDS,MEAN_MOTION,ECCENTRICITY,INCLINATION,RA_OF_ASC_NODE,ARG_OF_PERICENTER,MEAN_ANOMALY,EPHEMERIS_TYPE,ELEMENT_SET_NO,REV_AT_EPOCH,BSTAR,MEAN_MOTION_DOT,MEAN_MOTION_DDOT,FILE,TLE_LINE0,TLE_LINE1,TLE_LINE2,OBJECT_ID,OBJECT_NUMBER,SEMIMAJOR_AXIS,PERIOD,APOGEE,PERIGEE,DECAYED
"GENERATED VIA SPACETRACK.ORG API","18 SPCS","55095","SPACEBEE-162","PAYLOAD","U","23001CQ","2024-03-31 10:45:15","2784","15.37524248","0.0010294","97.4298","156.3115","72.5891","287.6478","0","999","6909","0.0023678","0.00088117","0","4255611","0 SPACEBEE-162","1 55095U 23001CQ  24091.44809031  .00088117  00000-0  23678-2 0  9998","2 55095  97.4298 156.3115 0010294  72.5891 287.6478 15.37524248 69092","2023-001CQ","55095","6831.570","93.657","460.467","446.403","0"
"GENERATED VIA SPACETRACK.ORG API","18 SPCS","55095","SPACEBEE-162","PAYLOAD","U","23001CQ","2024-03-31 17:00:07","93152","15.37545263","0.0010252","97.4296","156.5748","71.614","288.6219","0","999","6913","0.0013932","0.00051604","0","4256222","0 SPACEBEE-162","1 55095U 23001CQ  24091.70841543  .00051604  00000-0  13932-2 0  9994","2 55095  97.4296 156.5748 0010252  71.6140 288.6219 15.37545263 69134","2023-001CQ","55095","6831.508","93.656","460.376","446.369","0"
"GENERATED VIA SPACETRACK.ORG API","18 SPCS","55095","SPACEBEE-162","PAYLOAD","U","23001CQ","2024-03-31 17:00:07","93152","15.37545263","0.0010252","97.4296","156.5748","71.614","288.6219","0","999","6913","0.0013932","0.00051604","0","4256238","0 SPACEBEE-162","1 55095U 23001CQ  24091.70841543  .00051604  00000-0  13932-2 0  9994","2 55095  97.4296 156.5748 0010252  71.6140 288.6219 15.37545263 69134","2023-001CQ","55095","6831.508","93.656","460.376","446.369","0"
"GENERATED VIA SPACETRACK.ORG API","18 SPCS","55095","SPACEBEE-162","PAYLOAD","U","23001CQ","2024-04-01 14:52:06","559104","15.37637244","0.0010157","97.4295","157.4964","68.5853","291.6474","0","999","6927","0.0013444","0.00049929","0","4257565","0 SPACEBEE-162","1 55095U 23001CQ  24092.61952036  .00049929  00000-0  13444-2 0  9990","2 55095  97.4295 157.4964 0010157  68.5853 291.6474 15.37637244 69276","2023-001CQ","55095","6831.235","93.650","460.039","446.162","0"
"GENERATED VIA SPACETRACK.ORG API","18 SPCS","55095","SPACEBEE-162","PAYLOAD","U","23001CQ","2024-04-01 17:59:31","837056","15.37648813","0.0010135","97.4293","157.6277","67.7862","292.4456","0","999","6929","0.0013186","0.00048982","0","4258192","0 SPACEBEE-162","1 55095U 23001CQ  24092.74967404  .00048982  00000-0  13186-2 0  9990","2 55095  97.4293 157.6277 0010135  67.7862 292.4456 15.37648813 69295","2023-001CQ","55095","6831.201","93.649","459.990","446.143","0"
"GENERATED VIA SPACETRACK.ORG API","18 SPCS","55095","SPACEBEE-162","PAYLOAD","U","23001CQ","2024-04-02 03:21:47","155968","15.37682353","0.0010081","97.4295","158.0227","66.3684","293.8618","0","999","6935","0.0012238","0.00045482","0","4259431","0 SPACEBEE-162","1 55095U 23001CQ  24093.14012912  .00045482  00000-0  12238-2 0  9999","2 55095  97.4295 158.0227 0010081  66.3684 293.8618 15.37682353 69353","2023-001CQ","55095","6831.102","93.647","459.853","446.080","0"
"GENERATED VIA SPACETRACK.ORG API","18 SPCS","55095","SPACEBEE-162","PAYLOAD","U","23001CQ","2024-04-02 17:25:08","744160","15.37731549","0.0010019","97.4296","158.6152","64.2597","295.968","0","999","6944","0.0011277","0.00041951","0","4260044","0 SPACEBEE-162","1 55095U 23001CQ  24093.72579565  .00041951  00000-0  11277-2 0  9994","2 55095  97.4296 158.6152 0010019  64.2597 295.9680 15.37731549 69442","2023-001CQ","55095","6830.956","93.644","459.665","445.977","0"
"GENERATED VIA SPACETRACK.ORG API","18 SPCS","55095","SPACEBEE-162","PAYLOAD","U","23001CQ","2024-04-02 22:06:15","559488","15.37747594","0.0010001","97.4294","158.8132","64.3022","295.9254","0","999","6947","0.0011275","0.00041965","0","4260070","0 SPACEBEE-162","1 55095U 23001CQ  24093.92101342  .00041965  00000-0  11275-2 0  9993","2 55095  97.4294 158.8132 0010001  64.3022 295.9254 15.37747594 69472","2023-001CQ","55095","6830.909","93.643","459.605","445.942","0"
"GENERATED VIA SPACETRACK.ORG API","18 SPCS","55095","SPACEBEE-162","PAYLOAD","U","23001CQ","2024-04-03 10:35:52","928448","15.37788434","0.0009984","97.4295","159.3399","62.7859","297.4402","0","999","6955","0.0010252","0.00038182","0","4261282","0 SPACEBEE-162","1 55095U 23001CQ  24094.44158482  .00038182  00000-0  10252-2 0  9999","2 55095  97.4295 159.3399 0009984  62.7859 297.4402 15.37788434 69551","2023-001CQ","55095","6830.788","93.641","459.472","445.833","0"
"GENERATED VIA SPACETRACK.ORG API","18 SPCS","55095","SPACEBEE-162","PAYLOAD","U","23001CQ","2024-04-03 21:31:47","234208","15.37819608","0.0009906","97.4295","159.8011","61.1574","299.0664","0","999","6962","0.00096683","0.00036028","0","4261881","0 SPACEBEE-162","1 55095U 23001CQ  24094.89707447  .00036028  00000-0  96683-3 0  9999","2 55095  97.4295 159.8011 0009906  61.1574 299.0664 15.37819608 69622","2023-001CQ","55095","6830.695","93.639","459.327","445.794","0"
"GENERATED VIA SPACETRACK.ORG API","18 SPCS","55095","SPACEBEE-162","PAYLOAD","U","23001CQ","2024-04-04 03:46:35","65920","15.37838685","0.0009892","97.4295","160.0645","60.2573","299.9654","0","999","6966","0.00098677","0.00036799","0","4262472","0 SPACEBEE-162","1 55095U 23001CQ  24095.15735030  .00036799  00000-0  98677-3 0  9998","2 55095  97.4295 160.0645 0009892  60.2573 299.9654 15.37838685 69660","2023-001CQ","55095","6830.639","93.638","459.261","445.747","0"
"GENERATED VIA SPACETRACK.ORG API","18 SPCS","55095","SPACEBEE-162","PAYLOAD","U","23001CQ","2024-04-04 03:46:35","65920","15.37838685","0.0009892","97.4295","160.0645","60.2573","299.9654","0","999","6966","0.00098677","0.00036799","0","4263133","0 SPACEBEE-162","1 55095U 23001CQ  24095.15735030  .00036799  00000-0  98677-3 0  9998","2 55095  97.4295 160.0645 0009892  60.2573 299.9654 15.37838685 69660","2023-001CQ","55095","6830.639","93.638","459.261","445.747","0"
"GENERATED VIA SPACETRACK.ORG API","18 SPCS","55095","SPACEBEE-162","PAYLOAD","U","23001CQ","2024-04-04 17:49:51","731040","15.37876336","0.000982","97.4295","160.6573","58.2869","301.9331","0","999","6975","0.00090451","0.00033752","0","4263706","0 SPACEBEE-162","1 55095U 23001CQ  24095.74295985  .00033752  00000-0  90451-3 0  9991","2 55095  97.4295 160.6573 0009820  58.2869 301.9331 15.37876336 69753","2023-001CQ","55095","6830.527","93.636","459.100","445.685","0"
"GENERATED VIA SPACETRACK.ORG API","18 SPCS","55095","SPACEBEE-162","PAYLOAD","U","23001CQ","2024-04-05 09:26:48","421536","15.37932346","0.0009745","97.4295","161.3157","55.9885","304.2284","0","999","6985","0.0010965","0.00041046","0","4264849","0 SPACEBEE-162","1 55095U 23001CQ  24096.39361599  .00041046  00000-0  10965-2 0  9994","2 55095  97.4295 161.3157 0009745  55.9885 304.2284 15.37932346 69855","2023-001CQ","55095","6830.361","93.632","458.883","445.570","0"
"GENERATED VIA SPACETRACK.ORG API","18 SPCS","55095","SPACEBEE-162","PAYLOAD","U","23001CQ","2024-04-05 09:26:48","421536","15.37932346","0.0009745","97.4295","161.3157","55.9885","304.2284","0","999","6985","0.0010965","0.00041046","0","4264927","0 SPACEBEE-162","1 55095U 23001CQ  24096.39361599  .00041046  00000-0  10965-2 0  9994","2 55095  97.4295 161.3157 0009745  55.9885 304.2284 15.37932346 69855","2023-001CQ","55095","6830.361","93.632","458.883","445.570","0"
"GENERATED VIA SPACETRACK.ORG API","18 SPCS","55095","SPACEBEE-162","PAYLOAD","U","23001CQ","2024-04-05 17:15:16","26336","15.3795978","0.0009711","97.4295","161.645","54.7708","305.4445","0","999","6990","0.0010805","0.00040478","0","4265532","0 SPACEBEE-162","1 55095U 23001CQ  24096.71893549  .00040478  00000-0  10805-2 0  9996","2 55095  97.4295 161.6450 0009711  54.7708 305.4445 15.37959780 69907","2023-001CQ","55095","6830.280","93.631","458.778","445.512","0"
"GENERATED VIA SPACETRACK.ORG API","18 SPCS","55095","SPACEBEE-162","PAYLOAD","U","23001CQ","2024-04-06 10:25:50","895840","15.3802294","0.000966","97.4294","162.3694","52.5095","307.7027","0","999","7001","0.0011189","0.00042013","0","4266699","0 SPACEBEE-162","1 55095U 23001CQ  24097.43461685  .00042013  00000-0  11189-2 0  9991","2 55095  97.4294 162.3694 0009660  52.5095 307.7027 15.38022940 70017","2023-001CQ","55095","6830.093","93.627","458.556","445.360","0"
"GENERATED VIA SPACETRACK.ORG API","18 SPCS","55095","SPACEBEE-162","PAYLOAD","U","23001CQ","2024-04-06 10:25:50","895840","15.3802294","0.000966","97.4294","162.3694","52.5095","307.7027","0","999","7001","0.0011189","0.00042013","0","4266712","0 SPACEBEE-162","1 55095U 23001CQ  24097.43461685  .00042013  00000-0  11189-2 0  9991","2 55095  97.4294 162.3694 0009660  52.5095 307.7027 15.38022940 70017","2023-001CQ","55095","6830.093","93.627","458.556","445.360","0"
"GENERATED VIA SPACETRACK.ORG API","18 SPCS","55095","SPACEBEE-162","PAYLOAD","U","23001CQ","2024-04-06 22:55:20","211456","15.38064135","0.0009602","97.4291","162.896","50.7644","309.4451","0","999","7009","0.0010512","0.00039505","0","4267273","0 SPACEBEE-162","1 55095U 23001CQ  24097.95509504  .00039505  00000-0  10512-2 0  9992","2 55095  97.4291 162.8960 0009602  50.7644 309.4451 15.38064135 70091","2023-001CQ","55095","6829.971","93.624","458.394","445.278","0"
"GENERATED VIA SPACETRACK.ORG API","18 SPCS","55095","SPACEBEE-162","PAYLOAD","U","23001CQ","2024-04-07 09:51:07","314048","15.381023","0.0009536","97.4289","163.3574","48.9726","311.2341","0","999","7016","0.0010598","0.0003988","0","4267861","0 SPACEBEE-162","1 55095U 23001CQ  24098.41050132  .00039880  00000-0  10598-2 0  9992","2 55095  97.4289 163.3574 0009536  48.9726 311.2341 15.38102300 70165","2023-001CQ","55095","6829.858","93.622","458.236","445.210","0"
